[{"OBJECT_NAME":"STARLINK-5800","OBJECT_ID":"2023-042BH","EPOCH":"2026-03-09T04:07:52.121856","MEAN_MOTION":15.02540416,"ECCENTRICITY":0.00017639,"INCLINATION":43.0063,"RA_OF_ASC_NODE":32.748,"ARG_OF_PERICENTER":270.3709,"MEAN_ANOMALY":89.6932,"EPHEMERIS_TYPE":0,"CLASSIFICATION_TYPE":"U","NORAD_CAT_ID":56041,"ELEMENT_SET_NO":999,"REV_AT_EPOCH":16313,"BSTAR":7.0951711e-5,"MEAN_MOTION_DOT":7.55e-6,"MEAN_MOTION_DDOT":0},{"OBJECT_NAME":"SL-8 DEB","OBJECT_ID":"1976-098E","EPOCH":"2026-03-09T08:07:12.416160","MEAN_MOTION":15.06605169,"ECCENTRICITY":0.00102283,"INCLINATION":74.028,"RA_OF_ASC_NODE":26.283,"ARG_OF_PERICENTER":218.296,"MEAN_ANOMALY":294.2383,"EPHEMERIS_TYPE":0,"CLASSIFICATION_TYPE":"U","NORAD_CAT_ID":18504,"ELEMENT_SET_NO":999,"REV_AT_EPOCH":18055,"BSTAR":0.0011587434,"MEAN_MOTION_DOT":0.00017191,"MEAN_MOTION_DDOT":0}]
